STARLINK-35682          
1 66467U 25262M   25333.25002315 -.00068905  00000+0 -44811-3 0  9990
2 66467  42.9992 150.7460 0001848 263.4337 358.0755 15.75089125  3478
STARLINK-35331          
1 66468U 25262N   25333.25002315  .00109946  00000+0  71070-3 0  9997
2 66468  42.9991 150.7315 0002464 265.4748   1.8030 15.75000134  3472
STARLINK-35451          
1 66469U 25262P   25333.25002315  .00032504  00000+0  21395-3 0  9998
2 66469  42.9991 150.7165 0001600 263.5429   9.4867 15.75031878  3473
STARLINK-35655          
1 66470U 25262Q   25333.25002315  .00188370  00000+0  12070-2 0  9992
2 66470  42.9991 150.7262 0001845 294.1867 334.9973 15.74946683  3472
STARLINK-35569          
1 66471U 25262R   25333.25002315 -.00024705  00000+0 -15801-3 0  9992
2 66471  42.9991 150.7220 0002170 273.2663 357.8338 15.75061987  3476
STARLINK-35567          
1 66472U 25262S   25333.25002315  .00039573  00000+0  25963-3 0  9990
2 66472  42.9992 150.7118 0001978 267.8328   7.1066 15.75027887  3470
STARLINK-35568          
1 66473U 25262T   25333.25002315 -.00000466  00000+0  73026-7 0  9998
2 66473  42.9991 150.7071 0001342 270.0684   6.7676 15.75064994  3476
STARLINK-35620          
1 66474U 25262U   25333.25002315  .00016817  00000+0  11233-3 0  9993
2 66474  42.9995 150.7021 0001695 278.5244   0.2368 15.75045850  3479
STARLINK-35538          
1 66475U 25262V   25333.25002315  .00008148  00000+0  56076-4 0  9997
2 66475  42.9992 150.6973 0002179 266.1968  14.4820 15.75048853  3472
STARLINK-35372          
1 66476U 25262W   25333.25002315  .00089289  00000+0  57901-3 0  9990
2 66476  42.9992 150.6926 0001706 272.0204  10.5944 15.75008107  3365
STARLINK-35354          
1 66477U 25262X   25333.25002315 -.00231296  00000+0 -15345-2 0  9995
2 66477  42.9991 150.6830 0001366 264.4946  21.9053 15.75182314  3471
STARLINK-35283          
1 66478U 25262Y   25333.25002315  .00058875  00000+0  38394-3 0  9994
2 66478  42.9991 150.6773 0002006 272.6437  15.7177 15.75024072  3470
